STARLINK-5572           
1 55378U 23013AZ  23044.91667824 -.00212792  00000+0 -16521-2 0  9994
2 55378  42.9966 291.3837 0001375 270.8339 302.1321 15.71482401  3386
STARLINK-5569           
1 55379U 23013BA  23044.91667824 -.00312898  00000+0 -24532-2 0  9994
2 55379  42.9944 291.3734 0001554 273.1585 303.3467 15.71546913  3380
STARLINK-5571           
1 55380U 23013BB  23044.91667824 -.00275044  00000+0 -21489-2 0  9995
2 55380  42.9953 291.3772 0001488 280.8264 294.5040 15.71519099  3382
STARLINK-5575           
1 55381U 23013BC  23044.91667824 -.00330291  00000+0 -25935-2 0  9992
2 55381  42.9937 291.3714 0001681 272.3974 304.6942 15.71560827  3389
STARLINK-5576           
1 55382U 23013BD  23044.91667824 -.00278113  00000+0 -21734-2 0  9990
2 55382  42.9951 291.3789 0001708 270.9306 303.8028 15.71521441  3386
STARLINK-5531           
1 55383U 23013BE  23044.91667824 -.00340082  00000+0 -26728-2 0  9994
2 55383  42.9936 291.3697 0001584 268.8972 308.7849 15.71568172  3382
STARLINK-5537           
1 55384U 23013BF  23044.91667824 -.00316917  00000+0 -24855-2 0  9994
2 55384  42.9946 291.3755 0001646 272.5441 303.3629 15.71550660  3381
STARLINK-5556           
1 55385U 23013BG  23044.91667824 -.00386258  00000+0 -30480-2 0  9991
2 55385  42.9936 291.3655 0001527 267.3779 312.0651 15.71605767  3385
STARLINK-5555           
1 55386U 23013BH  23044.91667824 -.00375762  00000+0 -29623-2 0  9997
2 55386  42.9933 291.3669 0001671 274.4911 304.3606 15.71597801  3388
STARLINK-5077           
1 55391U 23014A   23044.91667824  .00061811  00000+0  51237-3 0  9996
2 55391  69.9994  52.4961 0003551 261.2358   5.1447 15.69907971  2286
STARLINK-5085           
1 55392U 23014B   23044.91667824  .00080021  00000+0  66181-3 0  9995
2 55392  70.0024  52.4819 0003333 266.3979  13.2327 15.69892308  2283
STARLINK-4786           
1 55393U 23014C   23044.91667824  .00085984  00000+0  71039-3 0  9997
2 55393  69.9994  52.4973 0003535 258.7350   6.4573 15.69894978  2282
STARLINK-5230           
1 55394U 23014D   23044.91667824  .00073824  00000+0  61100-3 0  9996
2 55394  69.9994  52.4988 0003489 257.9036   5.5064 15.69897605  2284
STARLINK-5274           
1 55395U 23014E   23044.91667824  .00078899  00000+0  65245-3 0  9998
2 55395  69.9994  52.4987 0003622 263.5179   0.4767 15.69898237  2280
STARLINK-5283           
1 55396U 23014F   23044.91667824  .00085462  00000+0  70612-3 0  9997
2 55396  69.9994  52.5010 0003496 262.3111 359.3078 15.69895538  2283
STARLINK-5224           
1 55397U 23014G   23044.91667824  .00074260  00000+0  61448-3 0  9999
2 55397  69.9994  52.4980 0003546 262.8575   1.7388 15.69900571  2280
STARLINK-5275           
1 55398U 23014H   23044.91667824  .00075482  00000+0  62455-3 0  9996
2 55398  69.9990  52.5013 0003437 262.6752 358.3510 15.69897966  2280
STARLINK-5276           
1 55399U 23014J   23044.91667824  .00058969  00000+0  48914-3 0  9992
2 55399  69.9988  52.5001 0003511 261.9606   0.8536 15.69903979  2287
STARLINK-5632           
1 55400U 23014K   23044.91667824  .00063303  00000+0  52465-3 0  9999
2 55400  69.9995  52.5026 0003503 264.7363 355.0927 15.69905727  2289
STARLINK-5076           
1 55401U 23014L   23044.91667824  .00058903  00000+0  48848-3 0  9990
2 55401  69.9993  52.5009 0003486 263.6829 358.5267 15.69910008  2287
STARLINK-5071           
1 55402U 23014M   23044.91667824  .00069958  00000+0  57931-3 0  9996
2 55402  69.9995  52.5038 0003522 268.6290 350.0151 15.69899477  2285
STARLINK-5597           
1 55403U 23014N   23044.91667824  .00085311  00000+0  70489-3 0  9991
2 55403  69.9995  52.5023 0003432 258.9197   1.5069 15.69895681  2287
STARLINK-5607           
1 55404U 23014P   23044.91667824  .00062484  00000+0  51786-3 0  9997
2 55404  69.9994  52.5061 0003528 264.5506 352.8928 15.69909404  2287
STARLINK-5623           
1 55405U 23014Q   23044.91667824  .00077266  00000+0  63920-3 0  9995
2 55405  69.9997  52.5035 0003473 262.4971 356.7411 15.69895502  2287
STARLINK-5630           
1 55406U 23014R   23044.91667824  .00047345  00000+0  39351-3 0  9992
2 55406  69.9996  52.5063 0003486 267.1763 349.0818 15.69910370  2280
STARLINK-5019           
1 55407U 23014S   23044.91667824  .00096704  00000+0  79797-3 0  9994
2 55407  69.9992  52.5047 0003182 254.9544   3.0972 15.69888648  2283
STARLINK-5092           
1 55408U 23014T   23044.91667824  .00073190  00000+0  60570-3 0  9998
2 55408  69.9997  52.5069 0003500 264.1408 351.5206 15.69901933  2283
STARLINK-5047           
1 55409U 23014U   23044.91667824  .00078665  00000+0  65054-3 0  9993
2 55409  69.9996  52.5064 0003561 262.2337 354.6201 15.69898566  2281
STARLINK-5633           
1 55410U 23014V   23044.91667824  .00056638  00000+0  46984-3 0  9992
2 55410  69.9996  52.5095 0003205 262.9098 350.3649 15.69913547  3213
STARLINK-5605           
1 55411U 23014W   23044.91667824  .00069134  00000+0  57253-3 0  9999
2 55411  69.9997  52.5081 0003435 269.0875 345.9794 15.69901361  2284
STARLINK-5033           
1 55412U 23014X   23044.91667824  .00079029  00000+0  65356-3 0  9997
2 55412  69.9996  52.5101 0003458 260.6095 352.0779 15.69897141  2285
STARLINK-5060           
1 55413U 23014Y   23044.91667824  .00094489  00000+0  77997-3 0  9999
2 55413  69.9990  52.5086 0003168 266.4222 348.0532 15.69887619  2287
STARLINK-5620           
1 55414U 23014Z   23044.91667824  .00103981  00000+0  85719-3 0  9999
2 55414  69.9991  52.5112 0003474 259.9745 351.5213 15.69886089  3215
STARLINK-5618           
1 55415U 23014AA  23044.91667824  .00178242  00000+0  14433-2 0  9996
2 55415  69.9995  52.5097 0003190 262.6492 351.5238 15.70084496  2284
STARLINK-5624           
1 55416U 23014AB  23044.91667824  .00068281  00000+0  56550-3 0  9995
2 55416  69.9997  52.5126 0003406 266.0967 344.2053 15.69903469  2287
STARLINK-5616           
1 55417U 23014AC  23044.58334491  .00059045  00000+0  48990-3 0  9997
2 55417  69.9989  53.4486 0003066 279.2829 249.3622 15.69899175  1300
STARLINK-5030           
1 55418U 23014AD  23044.91667824  .00059993  00000+0  49745-3 0  9995
2 55418  69.9995  52.5142 0003561 262.6206 346.4908 15.69908429  2289
STARLINK-5629           
1 55419U 23014AE  23044.91667824  .00063299  00000+0  52487-3 0  9997
2 55419  69.9990  52.5127 0003362 255.0101 355.8921 15.69894708  2280
STARLINK-5604           
1 55420U 23014AF  23044.91667824  .00169261  00000+0  13238-2 0  9995
2 55420  70.0068  52.5076 0003404 251.7702   6.0372 15.70948145  2283
STARLINK-5598           
1 55421U 23014AG  23044.91667824  .00063074  00000+0  52280-3 0  9992
2 55421  69.9996  52.5137 0003487 264.4126 345.2968 15.69904478  3213
STARLINK-5006           
1 55422U 23014AH  23044.91667824  .00092263  00000+0  76188-3 0  9998
2 55422  69.9997  52.5168 0002281 252.7319 353.4058 15.69889001  2285
STARLINK-5068           
1 55423U 23014AJ  23044.91667824  .00098258  00000+0  81047-3 0  9999
2 55423  69.9990  52.5153 0003541 260.7172 347.7944 15.69891447  2286
STARLINK-5066           
1 55424U 23014AK  23042.82309275  .02312358  45523-2  38980-2 0  9992
2 55424  70.0027  57.9074 0002871 176.1884 183.9351 16.03713891  2903
STARLINK-5615           
1 55425U 23014AL  23044.91667824  .00099114  00000+0  81911-3 0  9993
2 55425  69.9994  52.5171 0003560 265.3803 342.0186 15.69841830  2282
STARLINK-5638           
1 55426U 23014AM  23044.91667824  .00096320  00000+0  79474-3 0  9991
2 55426  69.9991  52.5192 0003509 257.4339 346.9096 15.69890501  2284
STARLINK-5073           
1 55427U 23014AN  23044.91667824  .00048918  00000+0  40636-3 0  9990
2 55427  69.9996  52.5175 0003519 265.0205 341.6989 15.69915572  2288
STARLINK-5064           
1 55428U 23014AP  23044.91667824  .00072579  00000+0  60075-3 0  9990
2 55428  69.9993  52.5205 0003644 259.6803 343.4788 15.69899397  2285
STARLINK-5645           
1 55429U 23014AQ  23044.91667824  .00133733  00000+0  10986-2 0  9996
2 55429  69.9994  52.5190 0003419 258.9196 346.0211 15.69873859  2282
STARLINK-5642           
1 55430U 23014AR  23044.91667824  .00094493  00000+0  77987-3 0  9992
2 55430  69.9992  52.5218 0003464 256.7584 345.2087 15.69890761  2283
STARLINK-5643           
1 55431U 23014AS  23044.91667824  .00048997  00000+0  40716-3 0  9991
2 55431  69.9993  52.5204 0003521 264.9416 338.8199 15.69906438  2280
STARLINK-5637           
1 55432U 23014AT  23044.91667824  .00072530  00000+0  60056-3 0  9991
2 55432  69.9992  52.5218 0003288 256.2170 345.1524 15.69892467  2285
STARLINK-5570           
1 55433U 23014AU  23044.91667824  .00082044  00000+0  67810-3 0  9998
2 55433  69.9996  52.5217 0003638 263.7202 338.8362 15.69899395  2283
STARLINK-5621           
1 55434U 23014AV  23044.91667824  .00122731  00000+0  10095-2 0  9999
2 55434  69.9996  52.5237 0003176 262.2623 337.3200 15.69879427  2283
STARLINK-5626           
1 55435U 23014AW  23044.91667824  .00081899  00000+0  67692-3 0  9995
2 55435  69.9996  52.5239 0003552 267.0012 333.7697 15.69899566  2285
STARLINK-5640           
1 55436U 23014AX  23044.91667824  .00068345  00000+0  56607-3 0  9991
2 55436  69.9997  52.5247 0003499 265.6519 333.3358 15.69901185  2283
STARLINK-5080           
1 55437U 23014AY  23044.91667824  .00096910  00000+0  79949-3 0  9995
2 55437  69.9995  52.5247 0003492 260.5370 339.6399 15.69892097  2289
STARLINK-5074           
1 55438U 23014AZ  23044.91667824  .00100440  00000+0  79638-3 0  9995
2 55438  70.0025  52.5027 0003442 259.9196   0.0223 15.70837167  2280
STARLINK-5634           
1 55439U 23014BA  23044.58334491 -.00022958  00000+0 -18949-3 0  9997
2 55439  69.9994  53.4633 0003080 268.6629 246.3996 15.69949649  1303
FALCON 9 DEB            
1 55440U 23014BB  23044.50036670  .00209267  00000+0  94369-3 0  9997
2 55440  70.0067  53.3275 0004710 241.0847 118.9884 15.83297667  2345
